FENGYUN 3D              
1 43010U 17072A   26186.25935688  .00000509  00000+0  26229-3 0  9991
2 43010  99.0140 161.0092 0002015  32.4416 327.6883 14.19744643447555
NOAA 20 (JPSS-1)        
1 43013U 17073A   26186.04582805  .00000079  00000+0  58404-4 0  9994
2 43013  98.7772 125.3499 0000977 132.6347 227.4912 14.19515157447006
GOES 17                 
1 43226U 18022A   26186.13128253 -.00000170  00000+0  00000+0 0  9995
2 43226   0.9798  85.4313 0000684  55.6550  99.8083  1.00270974 30606
SENTINEL-3B             
1 43437U 18039A   26186.21308142  .00000164  00000+0  85603-4 0  9992
2 43437  98.6240 253.4861 0000920 117.0798 243.0476 14.26740289426691
FENGYUN 2H              
1 43491U 18050A   26186.02206421 -.00000117  00000+0  00000+0 0  9993
2 43491   3.0746  78.8719 0001861 121.7484 169.6210  1.00269140 29612
METOP-C                 
1 43689U 18087A   26186.15757973  .00000137  00000+0  82225-4 0  9994
2 43689  98.6635 245.4320 0002185 106.6045 253.5373 14.21517260397384
GEO-KOMPSAT-2A          
1 43823U 18100A   26186.01841910 -.00000331  00000+0  00000+0 0  9993
2 43823   0.0417 160.9144 0002488 296.1151 320.8849  1.00272700 27806
METEOR-M2 2             
1 44387U 19038A   26186.29790448  .00000606  00000+0  28207-3 0  9996
2 44387  98.9155 173.8515 0001274  21.2489 338.8742 14.24372522363879
ARKTIKA-M 1             
1 47719U 21016A   26180.95192977 -.00000281  00000+0  00000+0 0  9994
2 47719  63.2520  55.7907 7292817 269.9910  14.5481  2.00617895 39040
FENGYUN 3E              
1 49008U 21062A   26186.31168834 -.00000017  00000+0  12819-4 0  9992
2 49008  98.7495 189.5179 0002625  56.2342 303.9084 14.19905664259156
GOES 18                 
1 51850U 22021A   26186.28436914  .00000110  00000+0  00000+0 0  9996
2 51850   0.0364 224.9080 0000566 298.1790  85.5633  1.00271956  6773
NOAA 21 (JPSS-2)        
1 54234U 22150A   26186.07828975  .00000099  00000+0  67463-4 0  9994
2 54234  98.7060 124.5669 0002556 122.0803 238.0622 14.19539924189083
METEOSAT-12 (MTG-I1)    
1 54743U 22170C   26186.22018031  .00000007  00000+0  00000+0 0  9990
2 54743   0.7579  25.6679 0003489  76.0432 260.5733  1.00276445 13159
TIANMU-1 03             
1 55973U 23039A   26186.28463976  .00018569  00000+0  35885-3 0  9994
2 55973  97.5244   0.9690 0003413  51.8404 308.3153 15.47828214183635
TIANMU-1 04             
1 55974U 23039B   26186.26702932  .00019411  00000+0  36707-3 0  9992
2 55974  97.5180   0.1062 0003890  46.9660 313.1915 15.48443806183640
TIANMU-1 05             
1 55975U 23039C   26186.26628580  .00018573  00000+0  35988-3 0  9997
2 55975  97.5226   0.5584 0003658  71.6069 288.5578 15.47751252183618
TIANMU-1 06             
1 55976U 23039D   26186.27155866  .00019251  00000+0  36536-3 0  9995
2 55976  97.5232   1.2180 0003866  65.7987 294.3667 15.48342264183647
FENGYUN 3G              
1 56232U 23055A   26186.25086262  .00029416  00000+0  45973-3 0  9999
2 56232  49.9917 252.8931 0007260  12.0523 348.0617 15.53465854182812
METEOR-M2 3             
1 57166U 23091A   26186.29639676  .00000011  00000+0  23435-4 0  9993
2 57166  98.6078 240.9034 0005076 112.4461 247.7256 14.24048383157096
TIANMU-1 07             
1 57399U 23101A   26186.28292309  .00009329  00000+0  32332-3 0  9996
2 57399  97.2577 236.5368 0004223  85.0517 275.1207 15.30031935164412
TIANMU-1 08             
1 57400U 23101B   26186.24951528  .00008653  00000+0  30003-3 0  9992
2 57400  97.2566 236.2722 0005366  71.9179 288.2646 15.30035531164408
TIANMU-1 09             
1 57401U 23101C   26186.29793059  .00009116  00000+0  31557-3 0  9991
2 57401  97.2524 235.7261 0004807  86.7190 273.4601 15.30073955164411
TIANMU-1 10             
1 57402U 23101D   26186.33130476  .00008784  00000+0  30436-3 0  9990
2 57402  97.2604 236.8277 0006276  80.1326 280.0624 15.30047895164414
FENGYUN 3F              
1 57490U 23111A   26186.29517453  .00000075  00000+0  55684-4 0  9995
2 57490  98.6829 255.9659 0001458  81.2293 278.9049 14.19942335151437
ARKTIKA-M 2             
1 58584U 23198A   26180.72239164  .00000148  00000+0  00000+0 0  9995
2 58584  63.2199 152.9641 6905877 267.3845  18.7575  2.00610643 18573
TIANMU-1 11             
1 58645U 23205A   26186.33537140  .00007770  00000+0  29403-3 0  9990
2 58645  97.3442 207.6086 0006977 306.4035  53.6560 15.27191809140292
TIANMU-1 12             
1 58646U 23205B   26186.30667209  .00007527  00000+0  28645-3 0  9995
2 58646  97.3431 207.3313 0005464 280.9862  79.0763 15.27020934140270
TIANMU-1 13             
1 58647U 23205C   26186.34006627  .00007972  00000+0  30332-3 0  9991
2 58647  97.3458 207.6407 0005041 256.4332 103.6345 15.27013601140271
TIANMU-1 14             
1 58648U 23205D   26186.32474229  .00007704  00000+0  29278-3 0  9997
2 58648  97.3395 206.7932 0005792 264.2020  95.8559 15.27057957140270
TIANMU-1 19             
1 58660U 23208A   26186.25239271  .00011222  00000+0  36712-3 0  9993
2 58660  97.4519 302.6490 0003736 239.7514 120.3358 15.31863777140090
