OBJECT_NAME,OBJECT_ID,EPOCH,MEAN_MOTION,ECCENTRICITY,INCLINATION,RA_OF_ASC_NODE,ARG_OF_PERICENTER,MEAN_ANOMALY,EPHEMERIS_TYPE,CLASSIFICATION_TYPE,NORAD_CAT_ID,ELEMENT_SET_NO,REV_AT_EPOCH,BSTAR,MEAN_MOTION_DOT,MEAN_MOTION_DDOT
FENGYUN 3D,2017-072A,2026-07-05T06:13:28.434432,14.19744643,.00020153,99.0140,161.0092,32.4416,327.6883,0,U,43010,999,44755,.26228954E-3,.509E-5,0
NOAA 20 (JPSS-1),2017-073A,2026-07-05T01:05:59.543520,14.19515157,.00009778,98.7772,125.3499,132.6347,227.4912,0,U,43013,999,44700,.58404183E-4,.79E-6,0
GOES 17,2018-022A,2026-07-05T03:09:02.810592,1.00270974,.00006849,0.9798,85.4313,55.6550,99.8083,0,U,43226,999,3060,0,-.17E-5,0
SENTINEL-3B,2018-039A,2026-07-05T05:06:50.234688,14.26740289,.00009206,98.6240,253.4861,117.0798,243.0476,0,U,43437,999,42669,.85602827E-4,.164E-5,0
FENGYUN 2H,2018-050A,2026-07-05T00:31:46.347744,1.00269140,.00018617,3.0746,78.8719,121.7484,169.6210,0,U,43491,999,2961,0,-.117E-5,0
METOP-C,2018-087A,2026-07-05T03:46:54.888672,14.21517260,.00021852,98.6635,245.4320,106.6045,253.5373,0,U,43689,999,39738,.82224955E-4,.137E-5,0
GEO-KOMPSAT-2A,2018-100A,2026-07-05T00:26:31.410240,1.00272700,.00024885,0.0417,160.9144,296.1151,320.8849,0,U,43823,999,2780,0,-.331E-5,0
METEOR-M2 2,2019-038A,2026-07-05T07:08:58.947072,14.24372522,.0001274,98.9155,173.8515,21.2489,338.8742,0,U,44387,999,36387,.28206932E-3,.606E-5,0
ARKTIKA-M 1,2021-016A,2026-06-29T22:50:46.732128,2.00617895,.72928178,63.2520,55.7907,269.9910,14.5481,0,U,47719,999,3904,0,-.281E-5,0
FENGYUN 3E,2021-062A,2026-07-05T07:28:49.872576,14.19905664,.00026251,98.7495,189.5179,56.2342,303.9084,0,U,49008,999,25915,.12819177E-4,-.17E-6,0
GOES 18,2022-021A,2026-07-05T06:49:29.493696,1.00271956,.00005666,0.0364,224.9080,298.1790,85.5633,0,U,51850,999,677,0,.11E-5,0
NOAA 21 (JPSS-2),2022-150A,2026-07-05T01:52:44.234400,14.19539924,.00025565,98.7060,124.5669,122.0803,238.0622,0,U,54234,999,18908,.67462589E-4,.99E-6,0
METEOSAT-12 (MTG-I1),2022-170C,2026-07-05T05:17:03.578784,1.00276445,.00034896,0.7579,25.6679,76.0432,260.5733,0,U,54743,999,1315,0,.7E-7,0
TIANMU-1 03,2023-039A,2026-07-05T06:49:52.875264,15.47828214,.00034137,97.5244,0.9690,51.8404,308.3153,0,U,55973,999,18363,.3588544E-3,.18569E-3,0
TIANMU-1 04,2023-039B,2026-07-05T06:24:31.333248,15.48443806,.00038907,97.5180,0.1062,46.9660,313.1915,0,U,55974,999,18364,.36706644E-3,.19411E-3,0
TIANMU-1 05,2023-039C,2026-07-05T06:23:27.093120,15.47751252,.00036586,97.5226,0.5584,71.6069,288.5578,0,U,55975,999,18361,.3598773E-3,.18573E-3,0
TIANMU-1 06,2023-039D,2026-07-05T06:31:02.668224,15.48342264,.00038662,97.5232,1.2180,65.7987,294.3667,0,U,55976,999,18364,.36535557E-3,.19251E-3,0
FENGYUN 3G,2023-055A,2026-07-05T06:01:14.530368,15.53465854,.00072608,49.9917,252.8931,12.0523,348.0617,0,U,56232,999,18281,.45973329E-3,.29416E-3,0
METEOR-M2 3,2023-091A,2026-07-05T07:06:48.680064,14.24048383,.00050764,98.6078,240.9034,112.4461,247.7256,0,U,57166,999,15709,.2343481E-4,.11E-6,0
TIANMU-1 07,2023-101A,2026-07-05T06:47:24.554976,15.30031935,.00042236,97.2577,236.5368,85.0517,275.1207,0,U,57399,999,16441,.32332458E-3,.9329E-4,0
TIANMU-1 08,2023-101B,2026-07-05T05:59:18.120192,15.30035531,.00053665,97.2566,236.2722,71.9179,288.2646,0,U,57400,999,16440,.30003466E-3,.8653E-4,0
TIANMU-1 09,2023-101C,2026-07-05T07:09:01.202976,15.30073955,.00048074,97.2524,235.7261,86.7190,273.4601,0,U,57401,999,16441,.31557439E-3,.9116E-4,0
TIANMU-1 10,2023-101D,2026-07-05T07:57:04.731264,15.30047895,.00062768,97.2604,236.8277,80.1326,280.0624,0,U,57402,999,16441,.30436003E-3,.8784E-4,0
FENGYUN 3F,2023-111A,2026-07-05T07:05:03.079392,14.19942335,.00014581,98.6829,255.9659,81.2293,278.9049,0,U,57490,999,15143,.55683658E-4,.75E-6,0
ARKTIKA-M 2,2023-198A,2026-06-29T17:20:14.637696,2.00610643,.69058771,63.2199,152.9641,267.3845,18.7575,0,U,58584,999,1857,0,.148E-5,0
TIANMU-1 11,2023-205A,2026-07-05T08:02:56.088960,15.27191809,.00069778,97.3442,207.6086,306.4035,53.6560,0,U,58645,999,14029,.29402862E-3,.777E-4,0
TIANMU-1 12,2023-205B,2026-07-05T07:21:36.468576,15.27020934,.0005464,97.3431,207.3313,280.9862,79.0763,0,U,58646,999,14027,.28645001E-3,.7527E-4,0
TIANMU-1 13,2023-205C,2026-07-05T08:09:41.725728,15.27013601,.00050411,97.3458,207.6407,256.4332,103.6345,0,U,58647,999,14027,.30332221E-3,.7972E-4,0
TIANMU-1 14,2023-205D,2026-07-05T07:47:37.733856,15.27057957,.00057921,97.3395,206.7932,264.2020,95.8559,0,U,58648,999,14027,.29277838E-3,.7704E-4,0
TIANMU-1 19,2023-208A,2026-07-05T06:03:26.730144,15.31863777,.00037365,97.4519,302.6490,239.7514,120.3358,0,U,58660,999,14009,.36711806E-3,.11222E-3,0
